[{"OBJECT_NAME":"STARLINK-34986","OBJECT_ID":"2025-259AA","EPOCH":"2026-02-08T04:04:03.688896","MEAN_MOTION":15.27609573,"ECCENTRICITY":0.00022718,"INCLINATION":43.0053,"RA_OF_ASC_NODE":81.309,"ARG_OF_PERICENTER":283.8582,"MEAN_ANOMALY":76.2017,"EPHEMERIS_TYPE":0,"CLASSIFICATION_TYPE":"U","NORAD_CAT_ID":66446,"ELEMENT_SET_NO":999,"REV_AT_EPOCH":1497,"BSTAR":0.0012200401,"MEAN_MOTION_DOT":0.00033495,"MEAN_MOTION_DDOT":0},{"OBJECT_NAME":"STARLINK-34851","OBJECT_ID":"2025-259AB","EPOCH":"2026-02-08T01:14:15.540000","MEAN_MOTION":15.27632372,"ECCENTRICITY":5.112e-5,"INCLINATION":43,"RA_OF_ASC_NODE":82.1421,"ARG_OF_PERICENTER":341.5258,"MEAN_ANOMALY":18.5575,"EPHEMERIS_TYPE":0,"CLASSIFICATION_TYPE":"U","NORAD_CAT_ID":66447,"ELEMENT_SET_NO":999,"REV_AT_EPOCH":1484,"BSTAR":0.0012872147,"MEAN_MOTION_DOT":0.00035386,"MEAN_MOTION_DDOT":0},{"OBJECT_NAME":"STARLINK-35355","OBJECT_ID":"2025-259AC","EPOCH":"2026-02-08T04:15:09.766368","MEAN_MOTION":15.27614433,"ECCENTRICITY":0.00024118,"INCLINATION":43.0014,"RA_OF_ASC_NODE":81.3618,"ARG_OF_PERICENTER":283.7912,"MEAN_ANOMALY":76.2671,"EPHEMERIS_TYPE":0,"CLASSIFICATION_TYPE":"U","NORAD_CAT_ID":66448,"ELEMENT_SET_NO":999,"REV_AT_EPOCH":1497,"BSTAR":0.0011857694,"MEAN_MOTION_DOT":0.00032547,"MEAN_MOTION_DDOT":0},{"OBJECT_NAME":"STARLINK-34720","OBJECT_ID":"2025-259AD","EPOCH":"2026-02-08T02:33:36.385632","MEAN_MOTION":15.27586226,"ECCENTRICITY":0.00010753,"INCLINATION":43.0002,"RA_OF_ASC_NODE":81.6929,"ARG_OF_PERICENTER":279.4437,"MEAN_ANOMALY":80.6293,"EPHEMERIS_TYPE":0,"CLASSIFICATION_TYPE":"U","NORAD_CAT_ID":66449,"ELEMENT_SET_NO":999,"REV_AT_EPOCH":1485,"BSTAR":0.0011447328,"MEAN_MOTION_DOT":0.00031378,"MEAN_MOTION_DDOT":0},{"OBJECT_NAME":"STARLINK-35334","OBJECT_ID":"2025-259AE","EPOCH":"2026-02-08T04:02:12.289056","MEAN_MOTION":15.2760464,"ECCENTRICITY":0.000282,"INCLINATION":42.9995,"RA_OF_ASC_NODE":81.2886,"ARG_OF_PERICENTER":159.2371,"MEAN_ANOMALY":200.8596,"EPHEMERIS_TYPE":0,"CLASSIFICATION_TYPE":"U","NORAD_CAT_ID":66450,"ELEMENT_SET_NO":999,"REV_AT_EPOCH":1497,"BSTAR":0.0010058917,"MEAN_MOTION_DOT":0.00027544,"MEAN_MOTION_DDOT":0},{"OBJECT_NAME":"STARLINK-35643","OBJECT_ID":"2025-262A","EPOCH":"2026-02-08T04:57:23.963904","MEAN_MOTION":15.27611264,"ECCENTRICITY":0.00017992,"INCLINATION":42.9933,"RA_OF_ASC_NODE":102.9929,"ARG_OF_PERICENTER":290.4166,"MEAN_ANOMALY":69.6492,"EPHEMERIS_TYPE":0,"CLASSIFICATION_TYPE":"U","NORAD_CAT_ID":66456,"ELEMENT_SET_NO":999,"REV_AT_EPOCH":1439,"BSTAR":0.00099756728,"MEAN_MOTION_DOT":0.00027317,"MEAN_MOTION_DDOT":0},{"OBJECT_NAME":"STARLINK-35466","OBJECT_ID":"2025-262B","EPOCH":"2026-02-06T05:39:45.315360","MEAN_MOTION":15.27591195,"ECCENTRICITY":2.9e-6,"INCLINATION":42.9938,"RA_OF_ASC_NODE":114.0071,"ARG_OF_PERICENTER":101.247,"MEAN_ANOMALY":258.8384,"EPHEMERIS_TYPE":0,"CLASSIFICATION_TYPE":"U","NORAD_CAT_ID":66457,"ELEMENT_SET_NO":999,"REV_AT_EPOCH":1409,"BSTAR":0.0015599,"MEAN_MOTION_DOT":0.00042927,"MEAN_MOTION_DDOT":0},{"OBJECT_NAME":"STARLINK-35684","OBJECT_ID":"2025-262C","EPOCH":"2026-02-08T04:48:08.966592","MEAN_MOTION":15.27599864,"ECCENTRICITY":0.00029355,"INCLINATION":42.9935,"RA_OF_ASC_NODE":102.9429,"ARG_OF_PERICENTER":286.4356,"MEAN_ANOMALY":73.6172,"EPHEMERIS_TYPE":0,"CLASSIFICATION_TYPE":"U","NORAD_CAT_ID":66458,"ELEMENT_SET_NO":999,"REV_AT_EPOCH":1439,"BSTAR":0.00097005749,"MEAN_MOTION_DOT":0.00026546,"MEAN_MOTION_DDOT":0},{"OBJECT_NAME":"STARLINK-35449","OBJECT_ID":"2025-262D","EPOCH":"2026-02-08T04:35:11.274144","MEAN_MOTION":15.27608263,"ECCENTRICITY":0.00018052,"INCLINATION":43.0006,"RA_OF_ASC_NODE":102.8813,"ARG_OF_PERICENTER":263.2689,"MEAN_ANOMALY":96.7957,"EPHEMERIS_TYPE":0,"CLASSIFICATION_TYPE":"U","NORAD_CAT_ID":66459,"ELEMENT_SET_NO":999,"REV_AT_EPOCH":1439,"BSTAR":0.00081612099,"MEAN_MOTION_DOT":0.00022283,"MEAN_MOTION_DDOT":0},{"OBJECT_NAME":"STARLINK-35424","OBJECT_ID":"2025-262E","EPOCH":"2026-02-08T05:41:35.186784","MEAN_MOTION":15.27617729,"ECCENTRICITY":0.00017994,"INCLINATION":42.9982,"RA_OF_ASC_NODE":102.3641,"ARG_OF_PERICENTER":199.4182,"MEAN_ANOMALY":160.6601,"EPHEMERIS_TYPE":0,"CLASSIFICATION_TYPE":"U","NORAD_CAT_ID":66460,"ELEMENT_SET_NO":999,"REV_AT_EPOCH":1440,"BSTAR":0.0009498427,"MEAN_MOTION_DOT":0.00025998,"MEAN_MOTION_DDOT":0},{"OBJECT_NAME":"STARLINK-35132","OBJECT_ID":"2025-262F","EPOCH":"2026-02-08T04:03:44.337888","MEAN_MOTION":15.2757178,"ECCENTRICITY":0.0004874,"INCLINATION":43.0048,"RA_OF_ASC_NODE":102.7205,"ARG_OF_PERICENTER":296.3179,"MEAN_ANOMALY":63.7171,"EPHEMERIS_TYPE":0,"CLASSIFICATION_TYPE":"U","NORAD_CAT_ID":66461,"ELEMENT_SET_NO":999,"REV_AT_EPOCH":1439,"BSTAR":0.0010995287,"MEAN_MOTION_DOT":0.00030118,"MEAN_MOTION_DDOT":0},{"OBJECT_NAME":"STARLINK-35499","OBJECT_ID":"2025-262G","EPOCH":"2026-02-08T03:50:47.385024","MEAN_MOTION":15.27601828,"ECCENTRICITY":0.00020381,"INCLINATION":43.0023,"RA_OF_ASC_NODE":102.6481,"ARG_OF_PERICENTER":280.0673,"MEAN_ANOMALY":79.9949,"EPHEMERIS_TYPE":0,"CLASSIFICATION_TYPE":"U","NORAD_CAT_ID":66462,"ELEMENT_SET_NO":999,"REV_AT_EPOCH":1439,"BSTAR":0.00096661686,"MEAN_MOTION_DOT":0.00026451,"MEAN_MOTION_DDOT":0},{"OBJECT_NAME":"STARLINK-35463","OBJECT_ID":"2025-262H","EPOCH":"2026-02-08T04:31:29.746272","MEAN_MOTION":15.27612335,"ECCENTRICITY":7.338e-5,"INCLINATION":42.9991,"RA_OF_ASC_NODE":102.86,"ARG_OF_PERICENTER":190.0776,"MEAN_ANOMALY":170.0061,"EPHEMERIS_TYPE":0,"CLASSIFICATION_TYPE":"U","NORAD_CAT_ID":66463,"ELEMENT_SET_NO":999,"REV_AT_EPOCH":1439,"BSTAR":0.0012173146,"MEAN_MOTION_DOT":0.00033421,"MEAN_MOTION_DDOT":0},{"OBJECT_NAME":"STARLINK-35435","OBJECT_ID":"2025-262J","EPOCH":"2026-02-08T05:11:59.100864","MEAN_MOTION":15.27622425,"ECCENTRICITY":0.00023143,"INCLINATION":43.0007,"RA_OF_ASC_NODE":102.209,"ARG_OF_PERICENTER":305.3259,"MEAN_ANOMALY":54.7376,"EPHEMERIS_TYPE":0,"CLASSIFICATION_TYPE":"U","NORAD_CAT_ID":66464,"ELEMENT_SET_NO":999,"REV_AT_EPOCH":1440,"BSTAR":0.0013125674,"MEAN_MOTION_DOT":0.00036082,"MEAN_MOTION_DDOT":0},{"OBJECT_NAME":"STARLINK-35448","OBJECT_ID":"2025-262K","EPOCH":"2026-02-08T04:46:17.855328","MEAN_MOTION":15.27607781,"ECCENTRICITY":0.00010449,"INCLINATION":42.9983,"RA_OF_ASC_NODE":102.9338,"ARG_OF_PERICENTER":181.943,"MEAN_ANOMALY":178.1418,"EPHEMERIS_TYPE":0,"CLASSIFICATION_TYPE":"U","NORAD_CAT_ID":66465,"ELEMENT_SET_NO":999,"REV_AT_EPOCH":1439,"BSTAR":0.001206265,"MEAN_MOTION_DOT":0.00033109,"MEAN_MOTION_DDOT":0},{"OBJECT_NAME":"STARLINK-35388","OBJECT_ID":"2025-262L","EPOCH":"2026-02-08T03:58:10.976448","MEAN_MOTION":15.2761952,"ECCENTRICITY":6.985e-5,"INCLINATION":43.0014,"RA_OF_ASC_NODE":102.6843,"ARG_OF_PERICENTER":205.9146,"MEAN_ANOMALY":154.1671,"EPHEMERIS_TYPE":0,"CLASSIFICATION_TYPE":"U","NORAD_CAT_ID":66466,"ELEMENT_SET_NO":999,"REV_AT_EPOCH":1439,"BSTAR":0.0013921594,"MEAN_MOTION_DOT":0.00038292,"MEAN_MOTION_DDOT":0}]
