STARLINK-34986          
1 66446U 25259AA  26039.16948714  .00033495  00000+0  12200-2 0  9999
2 66446  43.0053  81.3090 0002271 283.8582  76.2017 15.27609573 14971
STARLINK-34851          
1 66447U 25259AB  26039.05156875  .00035386  00000+0  12872-2 0  9993
2 66447  43.0000  82.1421 0000511 341.5258  18.5575 15.27632372 14845
STARLINK-35355          
1 66448U 25259AC  26039.17719637  .00032547  00000+0  11858-2 0  9997
2 66448  43.0014  81.3618 0002411 283.7912  76.2671 15.27614433 14975
STARLINK-34720          
1 66449U 25259AD  26039.10667113  .00031378  00000+0  11447-2 0  9997
2 66449  43.0002  81.6929 0001075 279.4437  80.6293 15.27586226 14854
STARLINK-35334          
1 66450U 25259AE  26039.16819779  .00027544  00000+0  10059-2 0  9990
2 66450  42.9995  81.2886 0002820 159.2371 200.8596 15.27604640 14970
STARLINK-35643          
1 66456U 25262A   26039.20652736  .00027317  00000+0  99757-3 0  9994
2 66456  42.9933 102.9929 0001799 290.4166  69.6492 15.27611264 14393
STARLINK-35466          
1 66457U 25262B   26037.23594115  .00042927  00000+0  15599-2 0  9997
2 66457  42.9938 114.0071 0000029 101.2470 258.8384 15.27591195 14092
STARLINK-35684          
1 66458U 25262C   26039.20010378  .00026546  00000+0  97006-3 0  9994
2 66458  42.9935 102.9429 0002935 286.4356  73.6172 15.27599864 14392
STARLINK-35449          
1 66459U 25262D   26039.19110271  .00022283  00000+0  81612-3 0  9996
2 66459  43.0006 102.8813 0001805 263.2689  96.7957 15.27608263 14398
STARLINK-35424          
1 66460U 25262E   26039.23721281  .00025998  00000+0  94984-3 0  9994
2 66460  42.9982 102.3641 0001799 199.4182 160.6601 15.27617729 14401
STARLINK-35132          
1 66461U 25262F   26039.16926317  .00030118  00000+0  10995-2 0  9993
2 66461  43.0048 102.7205 0004874 296.3179  63.7171 15.27571780 14396
STARLINK-35499          
1 66462U 25262G   26039.16027066  .00026451  00000+0  96662-3 0  9998
2 66462  43.0023 102.6481 0002038 280.0673  79.9949 15.27601828 14393
STARLINK-35463          
1 66463U 25262H   26039.18853873  .00033421  00000+0  12173-2 0  9993
2 66463  42.9991 102.8600 0000733 190.0776 170.0061 15.27612335 14398
STARLINK-35435          
1 66464U 25262J   26039.21665626  .00036082  00000+0  13126-2 0  9990
2 66464  43.0007 102.2090 0002314 305.3259  54.7376 15.27622425 14400
STARLINK-35448          
1 66465U 25262K   26039.19881777  .00033109  00000+0  12063-2 0  9991
2 66465  42.9983 102.9338 0001044 181.9430 178.1418 15.27607781 14396
STARLINK-35388          
1 66466U 25262L   26039.16540482  .00038292  00000+0  13922-2 0  9997
2 66466  43.0014 102.6843 0000698 205.9146 154.1671 15.27619520 14396
